ONEWEB-0688             
1 61596U 24188C   25030.54322475  .00005486  00000+0  66440-3 0  9997
2 61596  86.5801 126.6135 0003113 189.1790 170.9377 14.83484000 16186
ONEWEB-0689             
1 61597U 24188D   25030.83334491 -.00640494  00000+0 -20467+0 0  9992
2 61597  86.8388 127.1486 0001302 158.3608 263.9555 14.42677518 16251
ONEWEB-0690             
1 61598U 24188E   25030.83334491 -.00523442  00000+0 -13498+0 0  9992
2 61598  86.8545 127.1764 0005485 189.5504  86.4072 14.52461821 16243
ONEWEB-0691             
1 61599U 24188F   25030.83334491 -.00843793  00000+0 -25725+0 0  9993
2 61599  86.8390 127.2060 0004271 191.5274  47.1535 14.44841106 16406
ONEWEB-0692             
1 61600U 24188G   25030.83334491 -.00774710  00000+0 -24211+0 0  9997
2 61600  86.8453 127.1938 0001078 205.8997 225.1125 14.43855842 16342
ONEWEB-0693             
1 61601U 24188H   25030.54362650  .00005513  00000+0  66772-3 0  9992
2 61601  86.5715 126.5168 0001579 164.3691 195.7582 14.83481961 16345
